OBJECT_NAME,OBJECT_ID,EPOCH,MEAN_MOTION,ECCENTRICITY,INCLINATION,RA_OF_ASC_NODE,ARG_OF_PERICENTER,MEAN_ANOMALY,EPHEMERIS_TYPE,CLASSIFICATION_TYPE,NORAD_CAT_ID,ELEMENT_SET_NO,REV_AT_EPOCH,BSTAR,MEAN_MOTION_DOT,MEAN_MOTION_DDOT
KUZGTU 1 (RS47S),2023-091AV,2026-07-01T22:41:29.984352,15.30202130,.00114487,97.5056,247.5780,51.5249,308.7016,0,U,57217,999,16663,.512756E-3,.14948E-3,0
SONATE-2,2024-043Q,2026-06-30T20:56:07.654848,15.59751983,.0007194,97.5541,333.1180,151.0816,209.0840,0,U,59112,999,13002,.57664E-3,.46267E-3,0
MESAT1,2024-125G,2026-07-01T12:03:32.669280,15.64819211,.00108591,97.2263,40.3256,155.1491,205.0294,0,U,60209,999,11180,.69468072E-3,.68143E-3,0
OOV-CUBE (TUBSAT-30),2024-128F,2026-07-01T16:39:05.851872,15.02826243,.00428034,61.9932,174.9862,136.9261,223.5193,0,U,60240,999,10829,.1657735E-3,.2059E-4,0
COLIBRI-S (RS67S),2024-199M,2026-07-01T22:18:18.317088,15.48338429,.0007257,97.2968,56.9220,211.0796,149.0026,0,U,61746,999,13969,.50512532E-3,.26696E-3,0
HORS 3 (RS81S),2024-199U,2026-07-01T22:48:20.630592,15.56014711,.00052447,97.2952,59.0938,200.9595,159.1446,0,U,61753,999,13985,.63772753E-3,.44474E-3,0
HORS 4 (RS82S),2024-199V,2026-07-01T22:17:26.293056,15.61117143,.00052888,97.2894,60.3723,188.5205,171.5964,0,U,61754,999,13994,.7289794E-3,.6173E-3,0
SIT-2086,2024-199AF,2026-07-01T22:42:52.292448,15.54118065,.00065873,97.2908,59.5154,186.2726,173.8446,0,U,61764,999,13672,.7040603E-3,.45842E-3,0
HYPERVIEW 1G (RS66S),2024-199AP,2026-07-01T18:37:22.899936,15.80272211,.00070479,97.2836,63.2749,175.3274,184.8061,0,U,61772,999,13697,.10575166E-2,.202387E-2,0
ALTAIR (RS65S),2024-199AW,2026-07-01T21:20:26.716704,15.37307243,.00108913,97.3006,52.1442,249.3524,110.6554,0,U,61779,999,13937,.32499255E-3,.11825E-3,0
ASRTU-1 (AO-123),2024-199AY,2026-07-01T21:21:59.207040,15.35884140,.00119692,97.2978,51.4289,253.3104,106.6827,0,U,61781,999,13618,.25438765E-3,.8824E-4,0
SAMSAT-IONOSPHERE (RS75S),2024-199BB,2026-07-01T21:26:51.640800,15.58948009,.00074301,97.2919,59.1385,207.2706,152.8161,0,U,61784,999,13985,.73753927E-3,.57519E-3,0
RTU MIREA 1 (RS51S),2024-199BC,2026-07-01T21:12:59.458464,15.62752211,.00074901,97.2905,60.0395,199.6478,160.4493,0,U,61785,999,13676,.8270274E-3,.74776E-3,0
TEVEL2-4,2025-052D,2026-07-01T15:43:57.397152,15.35122895,.00046533,97.3888,79.0745,76.7769,283.3993,0,U,63213,999,7233,.67405526E-3,.22944E-3,0
TEVEL2-5,2025-052E,2026-06-30T05:50:33.814752,15.34882414,.00047019,97.3890,77.6036,80.7172,279.4603,0,U,63214,999,7211,.49541717E-3,.16701E-3,0
TEVEL2-6,2025-052F,2026-07-01T05:36:56.824128,15.34892606,.00044619,97.3895,78.5803,79.5368,280.6378,0,U,63215,999,7226,.73468096E-3,.24838E-3,0
TEVEL2-1,2025-052H,2026-07-01T15:49:21.724608,15.34353658,.00049593,97.3861,78.6135,86.0738,274.1071,0,U,63217,999,7231,.66004704E-3,.21922E-3,0
TEVEL2-3,2025-052J,2026-07-01T07:51:19.512288,15.34403112,.00047847,97.3865,78.3051,88.1642,272.0149,0,U,63218,999,7226,.74270485E-3,.24724E-3,0
TEVEL2-2,2025-052K,2026-07-01T15:49:40.906272,15.34364033,.0004976,97.3863,78.6161,87.0260,273.1553,0,U,63219,999,7231,.65989552E-3,.21924E-3,0
OTP-2,2025-052AB,2026-07-01T22:24:55.261152,15.24185840,.00081873,97.3853,75.1443,106.5003,253.7135,0,U,63235,999,7211,.40584546E-3,.9827E-4,0
TEVEL2-9,2025-052AD,2026-07-01T06:20:07.561824,15.32333335,.00082654,97.3927,77.5652,93.8568,266.3619,0,U,63237,999,7218,.73495027E-3,.22932E-3,0
TEVEL2-7,2025-052AE,2026-07-01T16:47:19.050720,15.32039741,.00084122,97.3928,77.9098,92.7780,267.4424,0,U,63238,999,7224,.62827643E-3,.19405E-3,0
TEVEL2-8,2025-052AF,2026-07-01T06:01:01.312032,15.32010872,.0008433,97.3927,77.4382,94.5817,265.6388,0,U,63239,999,7217,.72188856E-3,.22297E-3,0
INNOSAT 16 (RS92S7),2025-155C,2026-07-01T22:58:30.007200,15.25614717,.00120624,97.4573,150.0397,127.9100,232.3230,0,U,64878,999,8292,.27337526E-3,.6889E-4,0
GEOSCAN 6 (RS92S6),2025-155D,2026-07-01T23:01:52.507200,15.30429802,.00097745,97.4565,151.5715,118.7779,241.4444,0,U,64879,999,8302,.41120692E-3,.12047E-3,0
GEOSCAN 1 (RS92S1),2025-155E,2026-07-01T22:56:55.974624,15.31057048,.00097273,97.4561,151.7291,118.8957,241.3261,0,U,64880,999,8303,.43531465E-3,.1301E-3,0
239ALFEROV (RS61S),2025-155F,2026-07-01T21:42:14.340960,15.33342108,.00093927,97.4561,152.2887,117.8746,242.3449,0,U,64881,999,8306,.54734021E-3,.176E-3,0
GEOSCAN 2 (RS92S2),2025-155Q,2026-07-01T22:44:07.673856,15.31315735,.00091836,97.4560,151.8784,108.4406,251.7834,0,U,64890,999,8304,.43104314E-3,.12983E-3,0
GEOSCAN 5 (RS92S5),2025-155R,2026-07-01T22:56:01.411296,15.33656707,.00083344,97.4553,152.4835,121.2118,238.9942,0,U,64891,999,8308,.52356148E-3,.16994E-3,0
GEOSCAN 4 (RS92S4),2025-155S,2026-07-01T22:31:04.978848,15.33817757,.0008335,97.4557,152.5186,121.0892,239.1169,0,U,64892,999,8308,.54857558E-3,.17902E-3,0
