KUZGTU 1 (RS47S)        
1 57217U 23091AV  26182.94548593  .00014948  00000+0  51276-3 0  9992
2 57217  97.5056 247.5780 0011448  51.5249 308.7016 15.30202130166637
SONATE-2                
1 59112U 24043Q   26181.87231082  .00046267  00000+0  57664-3 0  9995
2 59112  97.5541 333.1180 0007194 151.0816 209.0840 15.59751983130025
MESAT1                  
1 60209U 24125G   26182.50246145  .00068143  00000+0  69468-3 0  9994
2 60209  97.2263  40.3256 0010859 155.1491 205.0294 15.64819211111808
OOV-CUBE (TUBSAT-30)    
1 60240U 24128F   26182.69381773  .00002059  00000+0  16577-3 0  9996
2 60240  61.9932 174.9862 0042803 136.9261 223.5193 15.02826243108294
COLIBRI-S (RS67S)       
1 61746U 24199M   26182.92937867  .00026696  00000+0  50513-3 0  9994
2 61746  97.2968  56.9220 0007257 211.0796 149.0026 15.48338429139695
HORS 3 (RS81S)          
1 61753U 24199U   26182.95023878  .00044474  00000+0  63773-3 0  9999
2 61753  97.2952  59.0938 0005244 200.9595 159.1446 15.56014711139854
HORS 4 (RS82S)          
1 61754U 24199V   26182.92877654  .00061730  00000+0  72898-3 0  9998
2 61754  97.2894  60.3723 0005288 188.5205 171.5964 15.61117143139946
SIT-2086                
1 61764U 24199AF  26182.94643857  .00045842  00000+0  70406-3 0  9996
2 61764  97.2908  59.5154 0006587 186.2726 173.8446 15.54118065136726
HYPERVIEW 1G (RS66S)    
1 61772U 24199AP  26182.77595949  .00202387  00000+0  10575-2 0  9993
2 61772  97.2836  63.2749 0007047 175.3274 184.8061 15.80272211136971
ALTAIR (RS65S)          
1 61779U 24199AW  26182.88919811  .00011825  00000+0  32499-3 0  9995
2 61779  97.3006  52.1442 0010891 249.3524 110.6554 15.37307243139373
ASRTU-1 (AO-123)        
1 61781U 24199AY  26182.89026860  .00008824  00000+0  25439-3 0  9993
2 61781  97.2978  51.4289 0011969 253.3104 106.6827 15.35884140136188
SAMSAT-IONOSPHERE (RS7*)
1 61784U 24199BB  26182.89365325  .00057519  00000+0  73754-3 0  9996
2 61784  97.2919  59.1385 0007430 207.2706 152.8161 15.58948009139853
RTU MIREA 1 (RS51S)     
1 61785U 24199BC  26182.88402151  .00074776  00000+0  82703-3 0  9993
2 61785  97.2905  60.0395 0007490 199.6478 160.4493 15.62752211136760
TEVEL2-4                
1 63213U 25052D   26182.65552543  .00022944  00000+0  67406-3 0  9999
2 63213  97.3888  79.0745 0004653  76.7769 283.3993 15.35122895 72335
TEVEL2-5                
1 63214U 25052E   26181.24344693  .00016701  00000+0  49542-3 0  9994
2 63214  97.3890  77.6036 0004701  80.7172 279.4603 15.34882414 72112
TEVEL2-6                
1 63215U 25052F   26182.23399102  .00024838  00000+0  73468-3 0  9994
2 63215  97.3895  78.5803 0004461  79.5368 280.6378 15.34892606 72269
TEVEL2-1                
1 63217U 25052H   26182.65927922  .00021922  00000+0  66005-3 0  9999
2 63217  97.3861  78.6135 0004959  86.0738 274.1071 15.34353658 72312
TEVEL2-3                
1 63218U 25052J   26182.32730917  .00024724  00000+0  74270-3 0  9996
2 63218  97.3865  78.3051 0004784  88.1642 272.0149 15.34403112 72262
TEVEL2-2                
1 63219U 25052K   26182.65950123  .00021924  00000+0  65990-3 0  9994
2 63219  97.3863  78.6161 0004976  87.0260 273.1553 15.34364033 72318
OTP-2                   
1 63235U 25052AB  26182.93397293  .00009827  00000+0  40585-3 0  9997
2 63235  97.3853  75.1443 0008187 106.5003 253.7135 15.24185840 72114
TEVEL2-9                
1 63237U 25052AD  26182.26397641  .00022932  00000+0  73495-3 0  9990
2 63237  97.3927  77.5652 0008265  93.8568 266.3619 15.32333335 72184
TEVEL2-7                
1 63238U 25052AE  26182.69952605  .00019405  00000+0  62828-3 0  9994
2 63238  97.3928  77.9098 0008412  92.7780 267.4424 15.32039741 72249
TEVEL2-8                
1 63239U 25052AF  26182.25070963  .00022297  00000+0  72189-3 0  9999
2 63239  97.3927  77.4382 0008433  94.5817 265.6388 15.32010872 72179
INNOSAT 16 (RS92S7)     
1 64878U 25155C   26182.95729175  .00006889  00000+0  27338-3 0  9991
2 64878  97.4573 150.0397 0012062 127.9100 232.3230 15.25614717 82921
GEOSCAN 6 (RS92S6)      
1 64879U 25155D   26182.95963550  .00012047  00000+0  41121-3 0  9998
2 64879  97.4565 151.5715 0009774 118.7779 241.4444 15.30429802 83024
GEOSCAN 1 (RS92S1)      
1 64880U 25155E   26182.95620341  .00013010  00000+0  43531-3 0  9996
2 64880  97.4561 151.7291 0009727 118.8957 241.3261 15.31057048 83037
239ALFEROV (RS61S)      
1 64881U 25155F   26182.90433265  .00017600  00000+0  54734-3 0  9995
2 64881  97.4561 152.2887 0009392 117.8746 242.3449 15.33342108 83066
GEOSCAN 2 (RS92S2)      
1 64890U 25155Q   26182.94731104  .00012983  00000+0  43104-3 0  9990
2 64890  97.4560 151.8784 0009183 108.4406 251.7834 15.31315735 83047
GEOSCAN 5 (RS92S5)      
1 64891U 25155R   26182.95557189  .00016994  00000+0  52356-3 0  9996
2 64891  97.4553 152.4835 0008334 121.2118 238.9942 15.33656707 83084
GEOSCAN 4 (RS92S4)      
1 64892U 25155S   26182.93825207  .00017902  00000+0  54858-3 0  9993
2 64892  97.4557 152.5186 0008335 121.0892 239.1169 15.33817757 83085
